SENTINEL-6              
1 46984U 20086A   24220.05909360 -.00000028  00000+0  14493-3 0  9993
2 46984  66.0412 105.6115 0007810 269.9103  90.1017 12.80930326173460
